0 FENGYUN 1C DEB
1 31674U 99025CCG 13283.63207322  .00004382  00000-0  25013-2 0  3756
2 31674 098.8176 224.2045 0045044 105.6077 255.0552 14.09149089332506
0 FENGYUN 1C DEB
1 31674U 99025CCG 13283.63209279  .00002411  00000-0  13997-2 0  3747
2 31674 098.8238 224.2155 0045327 108.7816 252.0075 14.09147875332504
0 FENGYUN 1C DEB
1 31674U 99025CCG 13286.68523064  .00002469  00000-0  14327-2 0  3758
2 31674 098.8225 227.2041 0044776 098.4431 262.1789 14.09163937332930
0 FENGYUN 1C DEB
1 31674U 99025CCG 13287.67927953  .00002555  00000-0  14812-2 0  3769
2 31674 098.8232 228.1774 0045304 095.4830 265.1827 14.09170880333076
0 FENGYUN 1C DEB
1 31674U 99025CCG 13289.66735558  .00002814  00000-0  16273-2 0  3770
2 31674 098.8247 230.1285 0046159 090.9776 269.7628 14.09186869333354
0 FENGYUN 1C DEB
1 31674U 99025CCG 13293.07542629  .00003077  00000-0  17778-2 0  3789
2 31674 098.8188 233.4499 0044063 079.9295 280.8252 14.09213373333837
0 FENGYUN 1C DEB
1 31674U 99025CCG 13293.64340564  .00003141  00000-0  18137-2 0  3799
2 31674 098.8193 234.0085 0045100 079.0298 281.6122 14.09218330333910
0 FENGYUN 1C DEB
1 31674U 99025CCG 13294.06940602  .00003165  00000-0  18275-2 0  3806
2 31674 098.8208 234.4269 0044781 079.9067 280.7398 14.09221518333975
